CCSDS_OMM_VERS,COMMENT,CREATION_DATE,ORIGINATOR,OBJECT_NAME,OBJECT_ID,CENTER_NAME,REF_FRAME,TIME_SYSTEM,MEAN_ELEMENT_THEORY,EPOCH,MEAN_MOTION,ECCENTRICITY,INCLINATION,RA_OF_ASC_NODE,ARG_OF_PERICENTER,MEAN_ANOMALY,EPHEMERIS_TYPE,CLASSIFICATION_TYPE,NORAD_CAT_ID,ELEMENT_SET_NO,REV_AT_EPOCH,BSTAR,MEAN_MOTION_DOT,MEAN_MOTION_DDOT,SEMIMAJOR_AXIS,PERIOD,APOAPSIS,PERIAPSIS,OBJECT_TYPE,RCS_SIZE,COUNTRY_CODE,LAUNCH_DATE,SITE,DECAY_DATE,FILE,GP_ID,TLE_LINE0,TLE_LINE1,TLE_LINE2
3.0,GENERATED VIA SPACE-TRACK.ORG API,2005-04-22T16:12:26,18 SPCS,SL-6 PLAT,1972-029C,EARTH,TEME,UTC,SGP4,1972-05-16T23:38:11.286240,16.3948002,0.000883,64.9368,133.2144,54.2317,305.9638,0,U,5946,999,525,0.0,0.08498489,0.0,6545.327,87.832,172.971,161.412,DEBRIS,,,,,1972-05-17,128520,41835209,0 SL-6 PLAT,1 05946U 72029  C 72137.98485285  .08498489 +00000-0 +00000-0 0  9993,2 05946 064.9368 133.2144 0008830 054.2317 305.9638 16.39480020005250
3.0,GENERATED VIA SPACE-TRACK.ORG API,2004-08-16T23:15:23,18 SPCS,SL-6 R/B(1),1981-088B,EARTH,TEME,UTC,SGP4,1981-10-05T18:41:19.057055,16.50311424,0.0024722,62.7507,337.9064,115.7091,244.6359,0,U,12819,999,385,0.0001198,0.147915,4.0274e-05,6516.656,87.256,154.632,122.411,ROCKET BODY,,,,,1981-10-05,34334,12282725,0 SL-6 R/B(1),1 12819U 81088  B 81278.77869279  .14791500 +40274-4 +11980-3 0  9997,2 12819 062.7507 337.9064 0024722 115.7091 244.6359 16.50311424003859
3.0,GENERATED VIA SPACE-TRACK.ORG API,2004-08-17T15:26:33,18 SPCS,SL-16 DEB,1992-093AK,EARTH,TEME,UTC,SGP4,2000-01-23T08:36:53.583263,16.08445135,0.0036982,70.7713,113.0228,346.3456,13.7247,0,U,22346,999,37392,0.022762,0.2147246,0.0,6629.253,89.527,275.634,226.602,DEBRIS,MEDIUM,CIS,1992-12-25,TTMTR,2000-01-23,35580,32523304,0 SL-16 DEB,1 22346U 92093AK  00023.35895351  .21472460  00000-0  22762-1 0  9990,2 22346 070.7713 113.0228 0036982 346.3456 013.7247 16.08445135373925
3.0,GENERATED VIA SPACE-TRACK.ORG API,2005-08-01T15:46:20,18 SPCS,SL-12 DEB,2002-037AD,EARTH,TEME,UTC,SGP4,2005-08-01T17:17:04.163711,16.22273448,0.0044752,63.6727,290.1286,119.8009,241.0703,0,U,28728,999,506,0.0038428,0.11318962,7.7367e-06,6591.527,88.764,242.891,183.894,DEBRIS,SMALL,CIS,2002-07-25,TTMTR,2005-08-02,166132,54330507,0 SL-12 DEB,1 28728U 02037AD  05213.72018708  .11318962  77367-5  38428-2 0  9996,2 28728 063.6727 290.1286 0044752 119.8009 241.0703 16.22273448  5065
3.0,GENERATED VIA SPACE-TRACK.ORG API,2004-05-29T18:37:51,18 SPCS,SL-12 DEB,1988-085BC,EARTH,TEME,UTC,SGP4,2003-10-26T01:21:49.451040,4.38074006,0.5649396,65.4427,211.2363,78.1956,337.3054,0,U,28006,999,977,0.41218,0.00208114,0.0,15777.461,328.711,18312.639,486.013,DEBRIS,SMALL,CIS,1988-09-16,TTMTR,2003-10-14,7679,6486209,0 SL-12 DEB,1 28006U 88085BC  03299.05682235 +.00208114 +00000-0 +41218-0 0  9991,2 28006 065.4427 211.2363 5649396 078.1956 337.3054 04.38074006009772
3.0,GENERATED VIA SPACE-TRACK.ORG API,2004-08-15T23:41:50,18 SPCS,SL-4 R/B,1978-070B,EARTH,TEME,UTC,SGP4,1978-07-09T11:55:20.234207,16.35050011,0.0012163,51.6121,95.3657,94.5261,272.4603,0,U,10980,999,33,0.0,0.04984982,0.0,6557.144,88.07,186.985,171.034,ROCKET BODY,,,,,1978-07-10,34035,10517394,0 SL-4 R/B,1 10980U 78070  B 78190.49676197  .04984982 +00000-0 +00000-0 0  9998,2 10980 051.6121 095.3657 0012163 094.5261 272.4603 16.35050011000333
3.0,GENERATED VIA SPACE-TRACK.ORG API,2004-08-16T23:15:56,18 SPCS,COSMOS 1406 DEB,1982-089D,EARTH,TEME,UTC,SGP4,1982-09-21T18:17:48.425856,16.31229973,0.001044,82.3101,152.8477,256.1359,104.3087,0,U,13582,999,216,2.562e-05,0.06213351,2.07e-08,6567.377,88.276,196.098,182.386,DEBRIS,,,,,1982-09-23,34345,12923148,0 COSMOS 1406 DEB,1 13582U 82089  D 82264.76236604  .06213351 +00207-5 +02562-3 0  9995,2 13582 082.3101 152.8477 0010440 256.1359 104.3087 16.31229973002165
3.0,GENERATED VIA SPACE-TRACK.ORG API,2004-05-28T18:55:50,18 SPCS,SL-4 R/B,2002-008B,EARTH,TEME,UTC,SGP4,2002-02-28T11:09:11.002752,16.32118822,0.0069383,67.1121,34.166,89.4017,51.8419,0,U,27383,999,44,0.00041647,0.09640635,6.1237e-06,6564.993,88.228,232.407,141.308,ROCKET BODY,LARGE,CIS,2002-02-25,PKMTR,2002-02-28,6561,2244364,0 SL-4 R/B,1 27383U 02008B   02059.46471068 +.09640635 +61237-5 +41647-3 0  9997,2 27383 067.1121 034.1660 0069383 089.4017 051.8419 16.32118822000441
3.0,GENERATED VIA SPACE-TRACK.ORG API,2022-10-02T07:16:12,18 SPCS,RESURS O1 DEB,1994-074AK,EARTH,TEME,UTC,SGP4,2022-10-02T05:34:46.225344,15.22088257,0.0009036,97.9791,13.4206,304.3447,55.6932,0,U,43347,999,33983,0.0063795,0.00148966,0.0,6877.68,94.607,505.759,493.33,DEBRIS,SMALL,CIS,1994-11-04,TTMTR,2022-12-02,3589099,213986852,0 RESURS O1 DEB,1 43347U 94074AK  22275.23247946  .00148966  00000-0  63795-2 0  9996,2 43347  97.9791  13.4206 0009036 304.3447  55.6932 15.22088257339830
3.0,GENERATED VIA SPACE-TRACK.ORG API,2022-08-26T18:04:35,18 SPCS,COSMOS 1408 DEB,1982-092RB,EARTH,TEME,UTC,SGP4,2022-08-25T22:58:09.491520,16.16391454,0.0028113,82.455,208.4454,171.05,189.1294,0,U,50015,999,4058,0.0080458,0.1243949,-1.3637e-06,6607.505,89.087,247.945,210.794,DEBRIS,SMALL,CIS,1982-09-16,PKMTR,2022-08-26,3548418,211049582,0 COSMOS 1408 DEB,1 50015U 82092RB  22237.95705430  .12439490 -13637-5  80458-2 0  9996,2 50015  82.4550 208.4454 0028113 171.0500 189.1294 16.16391454 40584
3.0,GENERATED VIA SPACE-TRACK.ORG API,2004-08-17T15:26:42,18 SPCS,SL-12 R/B(AUX MOTOR),1996-034F,EARTH,TEME,UTC,SGP4,2000-03-12T16:17:50.570591,16.43879877,0.0084548,46.3029,256.2387,12.2999,40.0181,0,U,23887,999,7774,0.00044392,0.84908156,1.2502e-05,6533.642,87.597,210.748,100.267,ROCKET BODY,MEDIUM,CIS,1996-05-25,TTMTR,2000-03-12,35583,32913854,0 SL-12 R/B(AUX MOTOR),1 23887U 96034F   00072.67905753  .84908156  12502-4  44392-3 0  9991,2 23887 046.3029 256.2387 0084548 012.2999 040.0181 16.43879877 77747
3.0,GENERATED VIA SPACE-TRACK.ORG API,2004-08-17T14:44:51,18 SPCS,COSMOS 1220 DEB,1980-089AB,EARTH,TEME,UTC,SGP4,1990-04-27T09:00:45.468864,16.03892972,0.0013697,64.9438,104.7199,335.667,23.8777,0,U,13331,999,42022,0.0097084,-0.0279911,0.095482,6641.79,89.781,272.753,254.558,DEBRIS,SMALL,CIS,1980-11-04,TTMTR,1990-04-28,34746,17884750,0 COSMOS 1220 DEB,1 13331U 80089 AB 90117.37552626 -.02799110 +95482-1 +97084-2 0  9999,2 13331 064.9438 104.7199 0013697 335.6670 023.8777 16.03892972420225
3.0,GENERATED VIA SPACE-TRACK.ORG API,2004-08-15T23:39:35,18 SPCS,SL-6 R/B(2),1970-101D,EARTH,TEME,UTC,SGP4,1975-12-31T22:39:34.063200,15.55006824,0.0426542,64.7196,343.5265,240.1209,115.6868,0,U,4785,999,4102,0.0,0.60750343,0.0,6780.274,92.604,691.346,112.931,ROCKET BODY,,,,,1976-01-02,33990,9437218,0 SL-6 R/B(2),1 04785U 70101  D 75365.94414425  .60750343 +00000-0 +00000-0 0  9990,2 04785 064.7196 343.5265 0426542 240.1209 115.6868 15.55006824041026
3.0,GENERATED VIA SPACE-TRACK.ORG API,2022-04-28T18:34:29,18 SPCS,COSMOS 1408 DEB,1982-092APG,EARTH,TEME,UTC,SGP4,2022-04-27T19:19:56.648064,16.14636051,0.0017363,82.5775,317.1472,273.6794,86.2506,0,U,50684,999,1998,0.0058301,0.07591241,-1.1939e-06,6612.293,89.184,245.639,222.677,DEBRIS,SMALL,CIS,1982-09-16,PKMTR,2022-04-27,3420061,202219856,0 COSMOS 1408 DEB,1 50684U 82092APG 22117.80551676  .07591241 -11939-5  58301-2 0  9992,2 50684  82.5775 317.1472 0017363 273.6794  86.2506 16.14636051 19989
3.0,GENERATED VIA SPACE-TRACK.ORG API,2004-08-16T23:18:11,18 SPCS,SL-4 R/B,1984-042B,EARTH,TEME,UTC,SGP4,1984-05-10T15:20:28.241664,16.49696806,0.0002089,51.6386,202.7124,159.4227,200.8262,0,U,14962,999,45,0.00041901,0.34136961,5.708e-05,6518.275,87.288,141.501,138.778,ROCKET BODY,,,,,1984-05-10,34390,13962975,0 SL-4 R/B,1 14962U 84042  B 84131.63921576  .34136961 +57080-4 +41901-3 0  9991,2 14962 051.6386 202.7124 0002089 159.4227 200.8262 16.49696806000454
3.0,GENERATED VIA SPACE-TRACK.ORG API,2022-02-09T18:03:45,18 SPCS,COSMOS 1408 DEB,1982-092BCY,EARTH,TEME,UTC,SGP4,2022-02-09T05:52:48.141696,16.0869393,0.0019248,82.5167,34.7639,176.9326,183.2079,0,U,51270,999,471,0.013546,0.07605287,0.19168,6628.566,89.514,263.189,237.672,DEBRIS,SMALL,CIS,1982-09-16,PKMTR,2022-02-09,3295989,195643284,0 COSMOS 1408 DEB,1 51270U 82092BCY 22040.24500164  .07605287  19168+0  13546-1 0  9995,2 51270  82.5167  34.7639 0019248 176.9326 183.2079 16.08693930  4713
3.0,GENERATED VIA SPACE-TRACK.ORG API,2011-04-07T00:55:18,18 SPCS,SL-4 R/B,2011-012B,EARTH,TEME,UTC,SGP4,2011-04-07T06:02:09.045312,16.47070601,0.0005964,51.6144,164.3823,68.1037,292.6569,0,U,37383,999,35,0.00052276,0.27702154,1.2631e-05,6525.202,87.427,150.958,143.175,ROCKET BODY,,CIS,2011-04-04,TTMTR,2011-04-07,1067801,82520767,0 SL-4 R/B,1 37383U 11012B   11097.25149358  .27702154  12631-4  52276-3 0  9994,2 37383 051.6144 164.3823 0005964 068.1037 292.6569 16.47070601   352
3.0,GENERATED VIA SPACE-TRACK.ORG API,2004-08-15T23:35:35,18 SPCS,SL-3 R/B,1964-033B,EARTH,TEME,UTC,SGP4,1964-07-10T14:10:09.175872,16.45956378,0.0,64.9321,33.4251,82.2526,277.7484,0,U,817,999,278,0.0,0.09757828,0.0,6528.146,87.487,150.011,150.011,ROCKET BODY,,,,,1964-07-10,33910,8689363,0 SL-3 R/B,1 00817U 64033  B 64192.59038398  .09757828 +00000-0 +00000-0 0  9995,2 00817 064.9321 033.4251 0000000 082.2526 277.7484 16.45956378002786
3.0,GENERATED VIA SPACE-TRACK.ORG API,2004-08-17T15:27:00,18 SPCS,SCOUT X-3 R/B,1963-022B,EARTH,TEME,UTC,SGP4,2000-05-17T10:29:45.360383,16.43510562,0.0014678,89.8679,207.1822,261.7468,98.1356,0,U,603,999,97919,0.00082025,0.2594544,-9.0848e-07,6534.621,87.617,166.078,146.895,ROCKET BODY,MEDIUM,US,1963-06-16,AFWTR,2000-05-17,35589,33457180,0 SCOUT X-3 R/B,1 00603U 63022B   00138.43733056  .25945440 -90848-6  82025-3 0  9994,2 00603 089.8679 207.1822 0014678 261.7468 098.1356 16.43510562979190
